NORAD_CAT_ID,OBJECT_NAME,OBJECT_TYPE,EPOCH,MEAN_MOTION,ECCENTRICITY,INCLINATION,RA_OF_ASC_NODE,ARG_OF_PERICENTER,MEAN_ANOMALY,BSTAR,MEAN_MOTION_DOT,MEAN_MOTION_DDOT,TLE_LINE0,TLE_LINE1,TLE_LINE2,SEMIMAJOR_AXIS,PERIOD,APOGEE,PERIGEE,DECAYED
55753.0,STARLINK-5617,PAYLOAD,2023-11-02 21:53:54,14.98331921,0.0002699,70.0003,247.2044,265.0988,94.9863,0.00012031,1.343e-05,0.0,0 STARLINK-5617,1 55753U 23028N   23306.91243809  .00001343  00000-0  12031-3 0  9991,2 55753  70.0003 247.2044 0002699 265.0988  94.9863 14.98331921 37554,6950.187,96.107,573.928,570.176,0.0
55753.0,STARLINK-5617,PAYLOAD,2023-11-03 04:18:26,14.98335872,0.0002881,69.9994,246.5325,270.6556,89.4273,8.1722e-05,8.82e-06,0.0,0 STARLINK-5617,1 55753U 23028N   23307.17947674  .00000882  00000-0  81722-4 0  9992,2 55753  69.9994 246.5325 0002881 270.6556  89.4273 14.98335872 37597,6950.175,96.107,574.042,570.037,0.0
55753.0,STARLINK-5617,PAYLOAD,2023-11-03 13:55:16,14.98305709,0.0002532,70.0009,245.5226,287.7505,72.3378,0.00053033,6.236e-05,0.0,0 STARLINK-5617,1 55753U 23028N   23307.58005080  .00006236  00000-0  53033-3 0  9995,2 55753  70.0009 245.5226 0002532 287.7505  72.3378 14.98305709 37652,6950.268,96.109,573.893,570.373,0.0
55753.0,STARLINK-5617,PAYLOAD,2023-11-03 21:55:55,14.98328294,0.0002847,70.0008,244.6808,269.6104,90.4729,6.9291e-05,7.34e-06,0.0,0 STARLINK-5617,1 55753U 23028N   23307.91384041  .00000734  00000-0  69291-4 0  9990,2 55753  70.0008 244.6808 0002847 269.6104  90.4729 14.98328294 37701,6950.198,96.107,574.042,570.084,0.0
55753.0,STARLINK-5617,PAYLOAD,2023-11-04 04:20:27,14.9833666,0.000288,69.9996,244.0082,265.8654,94.2176,7.8141e-05,8.4e-06,0.0,0 STARLINK-5617,1 55753U 23028N   23308.18087460  .00000840  00000-0  78141-4 0  9997,2 55753  69.9996 244.0082 0002880 265.8654  94.2176 14.98336660 37745,6950.172,96.107,574.039,570.036,0.0
55753.0,STARLINK-5617,PAYLOAD,2023-11-04 05:56:35,14.98337443,0.0002847,69.9998,243.8402,264.9911,95.0923,8.5544e-05,9.28e-06,0.0,0 STARLINK-5617,1 55753U 23028N   23308.24763359  .00000928  00000-0  85544-4 0  9994,2 55753  69.9998 243.8402 0002847 264.9911  95.0923 14.98337443 37759,6950.17,96.107,574.014,570.056,0.0
55753.0,STARLINK-5617,PAYLOAD,2023-11-04 21:57:56,14.98336292,0.0002549,70.0014,242.1571,268.5876,91.4991,2.8745e-05,2.5e-06,0.0,0 STARLINK-5617,1 55753U 23028N   23308.91523472  .00000250  00000-0  28745-4 0  9996,2 55753  70.0014 242.1571 0002549 268.5876  91.4991 14.98336292 37856,6950.173,96.107,573.81,570.267,0.0
55753.0,STARLINK-5617,PAYLOAD,2023-11-05 04:22:27,14.98361366,0.0002355,70.001,241.4851,257.0795,103.0102,-0.00029572,-3.622e-05,0.0,0 STARLINK-5617,1 55753U 23028N   23309.18226345 -.00003622  00000-0 -29572-3 0  9991,2 55753  70.0010 241.4851 0002355 257.0795 103.0102 14.98361366 37891,6950.096,96.105,573.598,570.324,0.0
55753.0,STARLINK-5617,PAYLOAD,2023-11-05 05:58:35,14.98370614,0.0002432,70.0008,241.3163,257.6816,102.4071,-0.00043005,-5.226e-05,0.0,0 STARLINK-5617,1 55753U 23028N   23309.24901845 -.00005226  00000-0 -43005-3 0  9992,2 55753  70.0008 241.3163 0002432 257.6816 102.4071 14.98370614 37905,6950.067,96.104,573.623,570.242,0.0
55753.0,STARLINK-5617,PAYLOAD,2023-11-05 20:23:48,14.98338045,0.0002778,70.001,239.8016,265.3512,94.733,0.00022438,2.586e-05,0.0,0 STARLINK-5617,1 55753U 23028N   23309.84986353  .00002586  00000-0  22438-3 0  9996,2 55753  70.0010 239.8016 0002778 265.3512  94.7330 14.98338045 37991,6950.168,96.106,573.964,570.102,0.0
55753.0,STARLINK-5617,PAYLOAD,2023-11-05 21:59:55,14.98346289,0.0002584,70.0012,239.6333,266.0604,94.026,0.00020527,2.358e-05,0.0,0 STARLINK-5617,1 55753U 23028N   23309.91661985  .00002358  00000-0  20527-3 0  9999,2 55753  70.0012 239.6333 0002584 266.0604  94.0260 14.98346289 38005,6950.143,96.106,573.803,570.212,0.0
55753.0,STARLINK-5617,PAYLOAD,2023-11-06 02:48:19,14.98353706,0.0002228,70.0019,239.1282,251.7518,108.3398,0.00034445,4.022e-05,0.0,0 STARLINK-5617,1 55753U 23028N   23310.11689040  .00004022  00000-0  34445-3 0  9999,2 55753  70.0019 239.1282 0002228 251.7518 108.3398 14.98353706 38036,6950.12,96.105,573.533,570.436,0.0
55753.0,STARLINK-5617,PAYLOAD,2023-11-06 06:00:33,14.98371575,0.0002729,69.9998,238.789,265.3323,94.7525,0.00049646,5.842e-05,0.0,0 STARLINK-5617,1 55753U 23028N   23310.25039251  .00005842  00000-0  49646-3 0  9997,2 55753  69.9998 238.7890 0002729 265.3323  94.7525 14.98371575 38056,6950.064,96.104,573.826,570.033,0.0
55753.0,STARLINK-5617,PAYLOAD,2023-11-06 12:25:08,14.98345545,0.0002869,70.0,238.1163,263.1889,96.8944,-5.9618e-05,-8.05e-06,0.0,0 STARLINK-5617,1 55753U 23028N   23310.51745537 -.00000805  00000-0 -59618-4 0  9994,2 55753  70.0000 238.1163 0002869 263.1889  96.8944 14.98345545 38098,6950.145,96.106,574.004,570.016,0.0
55753.0,STARLINK-5617,PAYLOAD,2023-11-06 22:01:59,14.98302893,0.0002613,70.0003,237.1066,244.4688,115.6201,-0.00032153,-3.924e-05,0.0,0 STARLINK-5617,1 55753U 23028N   23310.91805152 -.00003924  00000-0 -32153-3 0  9997,2 55753  70.0003 237.1066 0002613 244.4688 115.6201 14.98302893 38150,6950.277,96.109,573.958,570.326,0.0
55753.0,STARLINK-5617,PAYLOAD,2023-11-07 02:50:22,14.98307245,0.0002542,70.0015,236.6028,253.4506,106.6373,-0.00052317,-6.326e-05,0.0,0 STARLINK-5617,1 55753U 23028N   23311.11831782 -.00006326  00000-0 -52317-3 0  9991,2 55753  70.0015 236.6028 0002542 253.4506 106.6373 14.98307245 38184,6950.263,96.108,573.895,570.362,0.0
55753.0,STARLINK-5617,PAYLOAD,2023-11-07 06:02:38,14.98312925,0.0002685,70.0011,236.2647,250.7182,109.3687,-0.00037026,-4.506e-05,0.0,0 STARLINK-5617,1 55753U 23028N   23311.25183586 -.00004506  00000-0 -37026-3 0  9996,2 55753  70.0011 236.2647 0002685 250.7182 109.3687 14.98312925 38203,6950.246,96.108,573.977,570.245,0.0
55753.0,STARLINK-5617,PAYLOAD,2023-11-08 02:52:23,14.98325313,0.0002485,70.0017,234.0781,247.8929,112.1967,-0.00015605,-1.954e-05,0.0,0 STARLINK-5617,1 55753U 23028N   23312.11971548 -.00001954  00000-0 -15605-3 0  9998,2 55753  70.0017 234.0781 0002485 247.8929 112.1967 14.98325313 38330,6950.207,96.107,573.8,570.345,0.0
55753.0,STARLINK-5617,PAYLOAD,2023-11-08 04:28:31,14.98326678,0.0002411,70.0024,233.9105,236.2759,123.817,-9.7157e-05,-1.252e-05,0.0,0 STARLINK-5617,1 55753U 23028N   23312.18647511 -.00001252  00000-0 -97157-4 0  9999,2 55753  70.0024 233.9105 0002411 236.2759 123.8170 14.98326678 38349,6950.203,96.107,573.744,570.392,0.0
55753.0,STARLINK-5617,PAYLOAD,2023-11-08 22:06:00,14.98321368,0.0002843,70.0012,232.058,255.5033,104.5811,0.00060811,7.169e-05,0.0,0 STARLINK-5617,1 55753U 23028N   23312.92084213  .00007169  00000-0  60811-3 0  9992,2 55753  70.0012 232.0580 0002843 255.5033 104.5811 14.98321368 38452,6950.22,96.108,574.061,570.109,0.0
55753.0,STARLINK-5617,PAYLOAD,2023-11-09 02:54:24,14.98333968,0.0002852,70.0009,231.5529,260.1208,99.963,0.00065502,7.732e-05,0.0,0 STARLINK-5617,1 55753U 23028N   23313.12111716  .00007732  00000-0  65502-3 0  9992,2 55753  70.0009 231.5529 0002852 260.1208  99.9630 14.98333968 38489,6950.181,96.107,574.028,570.063,0.0
55753.0,STARLINK-5617,PAYLOAD,2023-11-09 04:30:32,14.9833575,0.0002764,70.0008,231.3844,257.9218,102.1632,0.00064617,7.626e-05,0.0,0 STARLINK-5617,1 55753U 23028N   23313.18787580  .00007626  00000-0  64617-3 0  9994,2 55753  70.0008 231.3844 0002764 257.9218 102.1632 14.98335750 38494,6950.175,96.107,573.961,570.119,0.0
55753.0,STARLINK-5617,PAYLOAD,2023-11-09 20:31:53,14.98332881,0.0002393,70.0023,229.7027,247.4733,112.6173,0.00012209,1.364e-05,0.0,0 STARLINK-5617,1 55753U 23028N   23313.85547759  .00001364  00000-0  12209-3 0  9993,2 55753  70.0023 229.7027 0002393 247.4733 112.6173 14.98332881 38598,6950.184,96.107,573.712,570.386,0.0
55753.0,STARLINK-5617,PAYLOAD,2023-11-09 22:08:01,14.98328876,0.000241,70.001,229.5341,247.1843,112.9062,0.00017584,2.006e-05,0.0,0 STARLINK-5617,1 55753U 23028N   23313.92224015  .00002006  00000-0  17584-3 0  9993,2 55753  70.0010 229.5341 0002410 247.1843 112.9062 14.98328876 38601,6950.196,96.107,573.736,570.386,0.0
55753.0,STARLINK-5617,PAYLOAD,2023-11-10 04:32:33,14.98329778,0.0002468,70.0007,228.8608,248.2206,111.8691,0.00013225,1.485e-05,0.0,0 STARLINK-5617,1 55753U 23028N   23314.18928013  .00001485  00000-0  13225-3 0  9999,2 55753  70.0007 228.8608 0002468 248.2206 111.8691 14.98329778 38645,6950.194,96.107,573.774,570.343,0.0
55753.0,STARLINK-5617,PAYLOAD,2023-11-10 22:10:02,14.98331049,0.0002749,70.0001,227.009,260.9968,99.088,3.5077e-05,3.26e-06,0.0,0 STARLINK-5617,1 55753U 23028N   23314.92363853  .00000326  00000-0  35077-4 0  9999,2 55753  70.0001 227.0090 0002749 260.9968  99.0880 14.98331049 38756,6950.19,96.107,573.965,570.144,0.0
55753.0,STARLINK-5617,PAYLOAD,2023-11-11 02:58:26,14.98333275,0.0002737,70.0,226.5041,261.538,98.5469,5.9884e-05,6.22e-06,0.0,0 STARLINK-5617,1 55753U 23028N   23315.12391601  .00000622  00000-0  59884-4 0  9995,2 55753  70.0000 226.5041 0002737 261.5380  98.5469 14.98333275 38780,6950.183,96.107,573.95,570.145,0.0
55753.0,STARLINK-5617,PAYLOAD,2023-11-11 10:59:05,14.98362091,0.0002654,70.0,225.6609,266.9773,93.1083,-0.00057548,-6.958e-05,0.0,0 STARLINK-5617,1 55753U 23028N   23315.45770488 -.00006958  00000-0 -57548-3 0  9999,2 55753  70.0000 225.6609 0002654 266.9773  93.1083 14.98362091 38830,6950.094,96.105,573.803,570.114,0.0
55753.0,STARLINK-5617,PAYLOAD,2023-11-11 18:59:47,14.98329576,0.000258,69.9996,224.8196,263.7578,96.3287,6.0357e-05,6.27e-06,0.0,0 STARLINK-5617,1 55753U 23028N   23315.79151746  .00000627  00000-0  60357-4 0  9994,2 55753  69.9996 224.8196 0002580 263.7578  96.3287 14.98329576 38886,6950.194,96.107,573.852,570.266,0.0
55753.0,STARLINK-5617,PAYLOAD,2023-11-11 22:12:03,14.98328159,0.0002677,69.9998,224.4831,266.2253,93.86,7.6072e-05,8.15e-06,0.0,0 STARLINK-5617,1 55753U 23028N   23315.92503770  .00000815  00000-0  76072-4 0  9997,2 55753  69.9998 224.4831 0002677 266.2253  93.8600 14.98328159 38905,6950.199,96.107,573.924,570.203,0.0
